COSMOS 2419 (714)       
1 28915U 05050A   16190.39584214 -.00000042  00000-0  00000+0 0  9994
2 28915  65.3310  77.4482 0016493 353.4799 215.6062  2.13110852 82005
COSMOS 2425 (716)       
1 29670U 06062A   16190.09060670 -.00000052  00000-0  10000-3 0  9995
2 29670  65.6250 316.4522 0020193 349.1203  42.9699  2.13104958 74205
COSMOS 2426 (717)       
1 29671U 06062B   16190.45595659 -.00000052  00000-0  10000-3 0  9996
2 29671  65.6424 316.5219 0018324 161.1740  11.9583  2.13102933 74214
COSMOS 2424 (715)       
1 29672U 06062C   16189.51625154 -.00000053  00000-0  10000-3 0  9997
2 29672  65.6269 316.4814 0017777 159.8365 188.6532  2.13102367 74183
COSMOS 2433 (720)       
1 32275U 07052A   16189.48057372 -.00000036  00000-0  10000-3 0  9998
2 32275  65.3462  77.2502 0002260 296.4396 179.6951  2.13104798 67702
COSMOS 2432 (719)       
1 32276U 07052B   16190.47493654 -.00000043  00000-0  10000-3 0  9995
2 32276  65.3584  77.2828 0012636 341.4572 131.3003  2.13104295 67721
COSMOS 2434 (721)       
1 32393U 07065A   16189.60975895 -.00000053  00000-0  00000-0 0  9991
2 32393  65.2428 315.7812 0005613 113.0858 354.0293  2.13102890 66416
COSMOS 2436 (723)       
1 32395U 07065C   16189.65146832 -.00000053  00000-0  10000-3 0  9993
2 32395  65.2563 315.8234 0015933 358.7859 232.3487  2.13102926 66347
COSMOS 2443 (725)       
1 33379U 08046B   16190.43027678 -.00000043  00000-0  10000-3 0  9999
2 33379  65.2751  76.6326 0016316 183.4670 206.0969  2.13101416 60590
COSMOS 2456 (730)       
1 36111U 09070A   16189.74064050  .00000045  00000-0  00000+0 0  9997
2 36111  64.1827 195.3614 0006420 295.9282  81.2372  2.13102968 51089
COSMOS 2457 (733)       
1 36112U 09070B   16190.51344318  .00000050  00000-0  00000+0 0  9999
2 36112  64.1653 195.2614 0006858 189.9622 190.2247  2.13101619 51108
COSMOS 2458 (734)       
1 36113U 09070C   16190.09077500  .00000047  00000-0  10000-3 0  9990
2 36113  64.1704 195.2814 0002620 291.0314 172.4651  2.13102044 51096
COSMOS 2459 (731)       
1 36400U 10007A   16190.40582679 -.00000043  00000-0  10000-3 0  9991
2 36400  65.2541  76.3679 0029256 354.4935 336.6425  2.13102391 49445
COSMOS 2461 (735)       
1 36401U 10007B   16189.73902534 -.00000039  00000-0  10000-3 0  9997
2 36401  65.2473  76.3707 0007271  63.4275  26.7378  2.13102520 49436
COSMOS 2460 (732)       
1 36402U 10007C   16190.10090874 -.00000041  00000-0  10000-3 0  9999
2 36402  65.2375  76.3348 0001425  27.1739  22.4396  2.13101930 49444
COSMOS 2465 (737)       
1 37138U 10041B   16190.11868302 -.00000054  00000-0  00000+0 0  9993
2 37138  64.8430 315.9262 0036139 168.8943  12.7665  2.13093967 45510
COSMOS 2464 (736)       
1 37139U 10041C   16190.16327067 -.00000054  00000-0  00000+0 0  9997
2 37139  64.8492 315.9205 0022200  16.6500  22.7982  2.13102649 45521
COSMOS 2471 (701K)      
1 37372U 11009A   16190.41755461 -.00000043  00000-0  00000+0 0  9990
2 37372  65.2354  76.2742 0006933 238.4996 186.6915  2.13102792 41726
COSMOS 2474 (742)       
1 37829U 11055A   16190.38943453  .00000049  00000-0  00000+0 0  9999
2 37829  64.5068 195.7599 0010753 254.0438 122.1841  2.13101984 37094
COSMOS 2476 (744)       
1 37867U 11064A   16190.43820647  .00000050  00000-0  00000+0 0  9998
2 37867  64.4863 195.8390 0019676 248.5128 210.9774  2.13102079 36440
COSMOS 2477 (745)       
1 37868U 11064B   16190.18127564  .00000048  00000-0  00000+0 0  9996
2 37868  64.4951 195.8884 0017703 249.9230 191.7479  2.13101905 36394
COSMOS 2475 (743)       
1 37869U 11064C   16190.35254829  .00000049  00000-0  00000+0 0  9992
2 37869  64.5030 195.8714 0023036 273.4958 255.7066  2.13102092 36404
COSMOS 2485 (747)       
1 39155U 13019A   16190.37510517  .00000050  00000-0  00000+0 0  9997
2 39155  64.6563 195.7961 0019896 243.7682 212.4346  2.13102102 24918
COSMOS 2492 (754)       
1 39620U 14012A   16189.48570845 -.00000037  00000-0  10000-3 0  9999
2 39620  65.1262  76.3414 0016192 336.5927 190.5807  2.13103547 17849
COSMOS 2500 (755)       
1 40001U 14032A   16190.45429861 -.00000044  00000-0  00000+0 0  9999
2 40001  65.0667  76.3303 0004624 206.0676 207.8912  2.13103047 16087
COSMOS 2501 (702K)      
1 40315U 14075A   16190.16030935 -.00000055  00000-0  00000+0 0  9994
2 40315  64.6139 317.3712 0017086 231.0694 118.4655  2.13101672 12472
COSMOS 2514 (751)       
1 41330U 16008A   16190.39478175 -.00000043  00000-0  00000+0 0  9994
2 41330  64.8650  76.5644 0007769 217.1027 330.2825  2.13103597  3246
COSMOS 2516 (753)       
1 41554U 16032A   16189.65237348 -.00000055  00000-0  00000+0 0  9994
2 41554  64.7961 317.0716 0011156 215.7800  16.8387  2.13101487   837
